OBJECT_NAME,OBJECT_ID,EPOCH,MEAN_MOTION,ECCENTRICITY,INCLINATION,RA_OF_ASC_NODE,ARG_OF_PERICENTER,MEAN_ANOMALY,EPHEMERIS_TYPE,CLASSIFICATION_TYPE,NORAD_CAT_ID,ELEMENT_SET_NO,REV_AT_EPOCH,BSTAR,MEAN_MOTION_DOT,MEAN_MOTION_DDOT
KUIPER-00603,2026-118W,2026-06-15T02:44:01.320288,15.37532203,.0005452,51.8683,63.2872,152.8614,207.2658,0,U,69287,999,366,.52436E-3,.19275E-3,0
KUIPER-00605,2026-118X,2026-06-15T02:51:14.117760,15.37002122,.0007592,51.8670,63.3188,160.2580,199.8702,0,U,69288,999,366,.49678E-3,.17929E-3,0
KUIPER-00606,2026-118Y,2026-06-15T02:40:35.334912,15.37718076,.0004614,51.8711,63.2729,142.7346,217.3962,0,U,69289,999,366,.56612E-3,.20971E-3,0
KUIPER-00607,2026-118Z,2026-06-15T01:11:51.163008,15.37395055,.0006091,51.8692,63.6088,153.8965,206.2330,0,U,69290,999,365,.4187E-3,.15235E-3,0
KUIPER-00608,2026-118AA,2026-06-15T03:04:53.986368,15.35267947,.0008583,51.8608,63.3765,173.4504,186.6595,0,U,69291,999,366,.124E-3,.3932E-4,0
KUIPER-00610,2026-118AB,2026-06-15T04:05:44.889216,15.38350376,.0002664,51.8733,62.9156,129.4807,230.6416,0,U,69292,999,367,.49506E-3,.18666E-3,0
KUIPER-00613,2026-118AC,2026-06-15T03:11:06.792000,15.35112583,.0010121,51.8630,63.4058,176.9625,183.1424,0,U,69293,999,366,-.32823E-3,-.11744E-3,0
KUIPER-00618,2026-118AD,2026-06-15T04:00:37.776960,15.38602289,.0001817,51.8732,62.8923,79.5865,280.5327,0,U,69294,999,367,.5127E-3,.19509E-3,0
KUIPER-00620,2026-118AE,2026-06-15T04:04:50.229120,15.38270113,.0002863,51.8728,62.9127,114.9539,245.1746,0,U,69295,999,367,.48805E-3,.18347E-3,0
STARLINK-37501,2026-119A,2026-06-15T04:00:01.998720,15.74125297,.0001606,97.2843,191.8787,74.1617,160.6558,0,U,69296,999,356,-.17757E-1,-.2207189E-1,0
STARLINK-37496,2026-119B,2026-06-15T04:00:01.998720,15.74274186,.000158,97.2842,191.8786,85.0980,150.6744,0,U,69297,999,356,-.21399E-1,-.2666259E-1,0
STARLINK-37519,2026-119C,2026-06-15T04:00:01.998720,15.73564079,.0001506,97.2844,191.8886,82.1151,175.3349,0,U,69298,999,356,-.18507E-1,-.2240021E-1,0
STARLINK-37455,2026-119D,2026-06-12T14:07:06.079584,15.79682093,.00040545,97.2829,189.1634,36.6104,323.5440,0,U,69299,999,331,-.14431533E-2,-.255334E-2,0
STARLINK-37456,2026-119E,2026-06-15T04:00:01.998720,15.74218775,.0001539,97.2842,191.8914,92.6340,171.4499,0,U,69300,999,356,-.21057E-1,-.2623844E-1,0
STARLINK-37630,2026-119F,2026-06-15T04:00:01.998720,15.57194217,.0001577,97.2837,191.8074,60.1270,1.7953,0,U,69301,999,372,-.32613E-1,-.2107947E-1,0
STARLINK-37804,2026-119G,2026-06-15T04:00:01.998720,15.55172202,.0001481,97.2838,191.8097,60.2369,6.8760,0,U,69302,999,372,-.43409E-1,-.2588369E-1,0
STARLINK-37730,2026-119H,2026-06-15T02:43:54.598368,15.80901651,.0000914,97.2821,191.8508,59.6923,300.4436,0,U,69303,999,371,.11895E-2,.234854E-2,0
STARLINK-37731,2026-119J,2026-06-15T04:00:01.998720,15.54070234,.0001384,97.2838,191.8085,65.5683,359.3305,0,U,69304,999,372,-.44904E-1,-.257305E-1,0
STARLINK-37734,2026-119K,2026-06-15T04:00:01.998720,15.71946632,.0001613,97.2838,191.8948,76.8865,197.6303,0,U,69305,999,372,-.23139E-1,-.2616137E-1,0
STARLINK-37701,2026-119L,2026-06-15T01:11:20.655168,15.78930994,.0001119,97.2824,191.7844,69.6717,290.4671,0,U,69306,999,370,-.70979E-2,-.1119152E-1,0
STARLINK-37732,2026-119M,2026-06-15T02:41:24.652032,15.80890216,.0001059,97.2818,191.8535,83.4909,276.6480,0,U,69307,999,371,.1033E-2,.203094E-2,0
STARLINK-37689,2026-119N,2026-06-15T04:00:01.998720,15.54480666,.0001389,97.2839,191.8154,72.7510,9.4093,0,U,69308,999,372,-.41617E-1,-.239138E-1,0
STARLINK-37619,2026-119P,2026-06-15T02:38:56.984064,15.80887190,.0001136,97.2822,191.8555,73.8412,286.2981,0,U,69309,999,371,.10427E-2,.205008E-2,0
STARLINK-37794,2026-119Q,2026-06-15T04:00:01.998720,15.69946089,.0001125,97.2842,191.9030,70.3373,223.7954,0,U,69310,999,372,-.19649E-1,-.2063878E-1,0
STARLINK-37795,2026-119R,2026-06-15T04:00:01.998720,15.55745753,.000158,97.2841,191.8267,64.5708,38.5800,0,U,69311,999,372,-.41678E-1,-.2493964E-1,0
STARLINK-37790,2026-119S,2026-06-15T04:00:01.998720,15.76806572,.0001289,97.2835,191.9210,51.6417,283.3336,0,U,69312,999,372,-.11009E-1,-.1546244E-1,0
STARLINK-37676,2026-119T,2026-06-15T02:30:56.454048,15.80852435,.0001361,97.2817,191.8627,59.4174,300.7228,0,U,69313,999,371,.11078E-2,.217796E-2,0
STARLINK-37617,2026-119U,2026-06-15T04:00:01.998720,15.76288931,.0001212,97.2840,191.9260,68.4955,281.6270,0,U,69314,999,372,-.19297E-1,-.2570061E-1,0
STARLINK-37627,2026-119V,2026-06-14T18:53:32.152416,15.80230891,.00014259,97.2817,191.5290,72.4250,287.7173,0,U,69315,999,366,-.32968523E-2,-.576083E-2,0
STARLINK-37738,2026-119W,2026-06-15T04:00:01.998720,15.76795073,.0001196,97.2835,191.9234,65.7559,274.8064,0,U,69316,999,372,-.18927E-1,-.257682E-1,0
