KUIPER-00603            
1 69287U 26118W   26166.11390417  .00019275  00000+0  52436-3 0  9993
2 69287  51.8683  63.2872 0005452 152.8614 207.2658 15.37532203  3662
KUIPER-00605            
1 69288U 26118X   26166.11891340  .00017929  00000+0  49678-3 0  9993
2 69288  51.8670  63.3188 0007592 160.2580 199.8702 15.37002122  3660
KUIPER-00606            
1 69289U 26118Y   26166.11152008  .00020971  00000+0  56612-3 0  9992
2 69289  51.8711  63.2729 0004614 142.7346 217.3962 15.37718076  3660
KUIPER-00607            
1 69290U 26118Z   26166.04989772  .00015235  00000+0  41870-3 0  9999
2 69290  51.8692  63.6088 0006091 153.8965 206.2330 15.37395055  3656
KUIPER-00608            
1 69291U 26118AA  26166.12840262  .00003932  00000+0  12400-3 0  9997
2 69291  51.8608  63.3765 0008583 173.4504 186.6595 15.35267947  3669
KUIPER-00610            
1 69292U 26118AB  26166.17065844  .00018666  00000+0  49506-3 0  9995
2 69292  51.8733  62.9156 0002664 129.4807 230.6416 15.38350376  3674
KUIPER-00613            
1 69293U 26118AC  26166.13271750 -.00011744  00000+0 -32823-3 0  9993
2 69293  51.8630  63.4058 0010121 176.9625 183.1424 15.35112583  3663
KUIPER-00618            
1 69294U 26118AD  26166.16710390  .00019509  00000+0  51270-3 0  9997
2 69294  51.8732  62.8923 0001817  79.5865 280.5327 15.38602289  3672
KUIPER-00620            
1 69295U 26118AE  26166.17002580  .00018347  00000+0  48805-3 0  9993
2 69295  51.8728  62.9127 0002863 114.9539 245.1746 15.38270113  3678
STARLINK-37501          
1 69296U 26119A   26166.16668980 -.02207189  00000+0 -17757-1 0  9994
2 69296  97.2843 191.8787 0001606  74.1617 160.6558 15.74125297  3565
STARLINK-37496          
1 69297U 26119B   26166.16668980 -.02666259  00000+0 -21399-1 0  9999
2 69297  97.2842 191.8786 0001580  85.0980 150.6744 15.74274186  3567
STARLINK-37519          
1 69298U 26119C   26166.16668980 -.02240021  00000+0 -18507-1 0  9992
2 69298  97.2844 191.8886 0001506  82.1151 175.3349 15.73564079  3564
STARLINK-37455          
1 69299U 26119D   26163.58826481 -.00255334  00000+0 -14432-2 0  9993
2 69299  97.2829 189.1634 0004054  36.6104 323.5440 15.79682093  3317
STARLINK-37456          
1 69300U 26119E   26166.16668980 -.02623844  00000+0 -21057-1 0  9998
2 69300  97.2842 191.8914 0001539  92.6340 171.4499 15.74218775  3563
STARLINK-37630          
1 69301U 26119F   26166.16668980 -.02107947  00000+0 -32613-1 0  9990
2 69301  97.2837 191.8074 0001577  60.1270   1.7953 15.57194217  3722
STARLINK-37804          
1 69302U 26119G   26166.16668980 -.02588369  00000+0 -43409-1 0  9997
2 69302  97.2838 191.8097 0001481  60.2369   6.8760 15.55172202  3723
STARLINK-37730          
1 69303U 26119H   26166.11382637  .00234854  00000+0  11895-2 0  9993
2 69303  97.2821 191.8508 0000914  59.6923 300.4436 15.80901651  3719
STARLINK-37731          
1 69304U 26119J   26166.16668980 -.02573050  00000+0 -44904-1 0  9991
2 69304  97.2838 191.8085 0001384  65.5683 359.3305 15.54070234  3723
STARLINK-37734          
1 69305U 26119K   26166.16668980 -.02616137  00000+0 -23139-1 0  9993
2 69305  97.2838 191.8948 0001613  76.8865 197.6303 15.71946632  3728
STARLINK-37701          
1 69306U 26119L   26166.04954462 -.01119152  00000+0 -70979-2 0  9993
2 69306  97.2824 191.7844 0001119  69.6717 290.4671 15.78930994  3704
STARLINK-37732          
1 69307U 26119M   26166.11209088  .00203094  00000+0  10330-2 0  9990
2 69307  97.2818 191.8535 0001059  83.4909 276.6480 15.80890216  3716
STARLINK-37689          
1 69308U 26119N   26166.16668980 -.02391380  00000+0 -41617-1 0  9997
2 69308  97.2839 191.8154 0001389  72.7510   9.4093 15.54480666  3720
STARLINK-37619          
1 69309U 26119P   26166.11038176  .00205008  00000+0  10427-2 0  9994
2 69309  97.2822 191.8555 0001136  73.8412 286.2981 15.80887190  3713
STARLINK-37794          
1 69310U 26119Q   26166.16668980 -.02063878  00000+0 -19649-1 0  9998
2 69310  97.2842 191.9030 0001125  70.3373 223.7954 15.69946089  3729
STARLINK-37795          
1 69311U 26119R   26166.16668980 -.02493964  00000+0 -41678-1 0  9999
2 69311  97.2841 191.8267 0001580  64.5708  38.5800 15.55745753  3724
STARLINK-37790          
1 69312U 26119S   26166.16668980 -.01546244  00000+0 -11009-1 0  9994
2 69312  97.2835 191.9210 0001289  51.6417 283.3336 15.76806572  3721
STARLINK-37676          
1 69313U 26119T   26166.10482007  .00217796  00000+0  11078-2 0  9994
2 69313  97.2817 191.8627 0001361  59.4174 300.7228 15.80852435  3717
STARLINK-37617          
1 69314U 26119U   26166.16668980 -.02570061  00000+0 -19297-1 0  9998
2 69314  97.2840 191.9260 0001212  68.4955 281.6270 15.76288931  3724
STARLINK-37627          
1 69315U 26119V   26165.78717769 -.00576083  00000+0 -32969-2 0  9996
2 69315  97.2817 191.5290 0001425  72.4250 287.7173 15.80230891  3666
STARLINK-37738          
1 69316U 26119W   26166.16668980 -.02576820  00000+0 -18927-1 0  9998
2 69316  97.2835 191.9234 0001196  65.7559 274.8064 15.76795073  3727
